STARLINK-32479          
1 62148U 24224K   26032.29145641  .00024295  00000+0  88896-3 0  9993
2 62148  43.0034   3.6410 0002798 273.8507  86.2025 15.27597309 66855
STARLINK-32468          
1 62149U 24224L   26032.29018262  .00034745  00000+0  12650-2 0  9997
2 62149  43.0026   3.6299 0000855 271.9564  88.1189 15.27610727 66757
STARLINK-32629          
1 62150U 24224M   26032.32858058  .00032353  00000+0  11793-2 0  9998
2 62150  43.0014   3.0599 0001640 254.7369 105.3301 15.27601665 66926
STARLINK-32644          
1 62151U 24224N   26032.31074127  .00021434  00000+0  78558-3 0  9996
2 62151  43.0018   3.7790 0000707 213.0284 147.0523 15.27605022 66917
STARLINK-32623          
1 62152U 24224P   26032.34737161  .00034776  00000+0  12661-2 0  9999
2 62152  43.0007   6.6631 0001348 272.2298  87.8399 15.27611473 66825
STARLINK-32639          
1 62153U 24224Q   26032.37355683  .00022766  00000+0  83286-3 0  9996
2 62153  43.0036   3.3959 0001456 264.7449  95.3237 15.27635564 66764
STARLINK-32625          
1 62154U 24224R   26032.31587976  .00025536  00000+0  93368-3 0  9993
2 62154  43.0034   3.8215 0001540 269.7247  90.3428 15.27600074 66808
STARLINK-32635          
1 62155U 24224S   26032.34318044  .00015502  00000+0  57134-3 0  9998
2 62155  43.0015  10.9443 0001269 268.7618  91.3088 15.27598782 66679
STARLINK-32532          
1 62156U 24224T   26032.41323521  .00031683  00000+0  11547-2 0  9998
2 62156  43.0061   2.8301 0001674 279.9173  80.1490 15.27613721 66779
STARLINK-32503          
1 62157U 24224U   26032.33162087  .00024100  00000+0  88107-3 0  9991
2 62157  43.0042  10.8625 0001625 286.2463  73.8209 15.27631230 66408
STARLINK-32508          
1 62158U 24224V   26032.29404038  .00030623  00000+0  11157-2 0  9999
2 62158  43.0016   3.6548 0000503 217.5355 142.5461 15.27641004 66915
STARLINK-32524          
1 62159U 24224W   26032.29356744  .00021484  00000+0  78767-3 0  9996
2 62159  43.0049   7.1130 0001978 260.6493  99.4135 15.27591657 66711
STARLINK-32484          
1 62160U 24224X   26032.31459249  .00023592  00000+0  86307-3 0  9996
2 62160  43.0036   3.8104 0001485 259.4897 100.5788 15.27618527 66916
STARLINK-32497          
1 62161U 24224Y   26032.41660406  .00064892  00000+0  23383-2 0  9999
2 62161  42.9989   6.3212 0001151 102.5889 257.5091 15.27702556 66881
STARLINK-32526          
1 62162U 24224Z   26032.42046715  .00032098  00000+0  11698-2 0  9991
2 62162  43.0024   6.3499 0001171 279.9385  80.1334 15.27611810 66885
STARLINK-32523          
1 62165U 24225C   26031.66668981 -.00003352  00000+0 -27289-3 0  9992
2 62165  70.0003 257.8826 0003159 267.3987 225.4665 14.98381478  5637
STARLINK-32551          
1 62166U 24225D   26032.01758979 -.00001762  00000+0 -13995-3 0  9992
2 62166  69.9997 256.8511 0002983 264.4860  95.5959 14.98316854 64384
STARLINK-32506          
1 62167U 24225E   26032.32616977  .00233907  00000+0  18682-1 0  9990
2 62167  69.9983 256.3073 0002946 320.5586  39.5358 14.98909885 64424
STARLINK-32562          
1 62168U 24225F   26032.36391087 -.00005292  00000+0 -43628-3 0  9993
2 62168  69.9996 256.0450 0002913 266.2924  93.7902 14.98309885 64433
STARLINK-32558          
1 62169U 24225G   26032.03845727  .00041778  00000+0  34941-2 0  9997
2 62169  70.0013 256.9183 0002024 275.7506  84.3423 14.98268041 64389
STARLINK-32538          
1 62170U 24225H   26032.31801153  .00001847  00000+0  16254-3 0  9996
2 62170  69.9997 256.2886 0002562 269.7177  90.3688 14.98335445 64424
STARLINK-32257          
1 62171U 24225J   26032.00506318  .00037895  00000+0  31680-2 0  9999
2 62171  69.9992 256.8059 0003282 282.3473  77.7318 14.98311283 64386
STARLINK-32407          
1 62172U 24225K   26032.50002314  .00073197  00000+0  60832-2 0  9998
2 62172  69.9996 255.6531 0003384 266.2291 152.9028 14.98299050  5752
STARLINK-32575          
1 62173U 24225L   26032.33231456  .00004270  00000+0  36541-3 0  9998
2 62173  69.9997 245.9316 0002962 266.9978  93.0842 14.98330124 64681
STARLINK-32552          
1 62174U 24225M   26032.50002314  .00066505  00000+0  55350-2 0  9994
2 62174  69.9993 255.5835 0002974 263.5886 223.0326 14.98286762  5556
STARLINK-32534          
1 62175U 24225N   26032.38894738  .00003992  00000+0  34212-3 0  9996
2 62175  69.9993 256.1337 0002548 269.3710  90.7157 14.98333371 64430
STARLINK-32516          
1 62176U 24225P   26032.31383638  .00010521  00000+0  88844-3 0  9998
2 62176  70.0001 256.2740 0003291 263.9292  96.1492 14.98320207 64429
STARLINK-32542          
1 62177U 24225Q   26032.50002314  .00074754  00000+0  62108-2 0  9991
2 62177  69.9998 255.7304 0002941 266.5384  85.0777 14.98301495  5396
STARLINK-32600          
1 62178U 24225R   26031.91508375  .00001738  00000+0  15339-3 0  9991
2 62178  69.9996 247.2847 0002703 268.5052  91.5797 14.98331189 64610
STARLINK-32584          
1 62179U 24225S   26032.02593197  .00004344  00000+0  37159-3 0  9991
2 62179  69.9994 256.8097 0002475 269.0774  91.0101 14.98331699 64389
STARLINK-32587          
1 62180U 24225T   26032.34720014  .00003224  00000+0  27783-3 0  9996
2 62180  69.9994 255.9031 0002633 262.5787  97.5073 14.98330900 64436
STARLINK-32602          
1 62181U 24225U   26032.29894655  .00001215  00000+0  10956-3 0  9996
2 62181  69.9999 246.2221 0002590 268.6569  91.4294 14.98332956 64670
STARLINK-32565          
1 62182U 24225V   26032.33053105  .00004305  00000+0  36827-3 0  9997
2 62182  69.9994 255.9372 0002215 273.9284  86.1622 14.98336988 64436
STARLINK-32589          
1 62183U 24225W   26032.33036441  .00001980  00000+0  17374-3 0  9994
2 62183  69.9996 256.3339 0002793 270.4530  89.6309 14.98319748 64428
STARLINK-32581          
1 62184U 24225X   26032.01523216  .00011447  00000+0  96566-3 0  9990
2 62184  69.9996 246.8292 0002488 277.6494  82.4383 14.98327557 64633
STARLINK-32686          
1 62192U 24229A   26032.20606388  .00021453  00000+0  78627-3 0  9992
2 62192  42.9997 113.1310 0001011 212.0525 148.0265 15.27604128 65027
STARLINK-32688          
1 62193U 24229B   26032.22357413  .00024908  00000+0  91104-3 0  9990
2 62193  43.0021 116.7199 0001022 240.9777 119.0973 15.27600712 64986
STARLINK-32684          
1 62194U 24229C   26032.26325707  .00021085  00000+0  77300-3 0  9991
2 62194  42.9952 116.1579 0000612 305.0941  54.9853 15.27602482 66177
STARLINK-32672          
1 62195U 24229D   26032.27739358  .00034322  00000+0  12502-2 0  9994
2 62195  43.0027 116.2655 0001497 290.2671  69.8019 15.27598928 64992
STARLINK-32682          
1 62196U 24229E   26032.13405610  .00020784  00000+0  76215-3 0  9990
2 62196  43.0001  84.4861 0001395 233.7066 126.3657 15.27602922 65344
STARLINK-32663          
1 62197U 24229F   26032.24540380  .00023424  00000+0  85705-3 0  9995
2 62197  42.9989 116.8778 0001198 279.6886  80.3830 15.27617727 64985
STARLINK-32640          
1 62198U 24229G   26032.26967929  .00032070  00000+0  11686-2 0  9993
2 62198  42.9994 116.2075 0002485 290.3801  69.6784 15.27614652 64996
STARLINK-32653          
1 62199U 24229H   26032.29120329  .00019170  00000+0  70391-3 0  9997
2 62199  42.9970 109.3980 0000935 297.7476  62.3281 15.27599955 65076
STARLINK-32647          
1 62200U 24229J   26032.29152467  .00023614  00000+0  86417-3 0  9992
2 62200  43.0004 116.3637 0001173 234.3169 125.7574 15.27606978 64990
STARLINK-32667          
1 62201U 24229K   26032.25552923  .00023127  00000+0  84607-3 0  9998
2 62201  43.0010 116.0966 0000878 245.2971 114.7789 15.27628388 64998
STARLINK-32655          
1 62202U 24229L   26032.23770439  .00021319  00000+0  78152-3 0  9990
2 62202  43.0012 116.8201 0003494 285.2051  74.8414 15.27597658 64986
STARLINK-32665          
1 62203U 24229M   26032.28510167  .00020876  00000+0  76548-3 0  9990
2 62203  43.0012 116.3172 0001049 252.9465 107.1271 15.27602122 64998
STARLINK-32664          
1 62204U 24229N   26032.29536662  .00024580  00000+0  89913-3 0  9996
2 62204  43.0008 116.3930 0001547 266.6000  93.4675 15.27603326 64998
STARLINK-32660          
1 62205U 24229P   26032.19466272  .00020866  00000+0  76500-3 0  9996
2 62205  42.9994 102.6243 0001054 215.4199 144.6583 15.27607575 65145
STARLINK-32448          
1 62206U 24229Q   26032.25940195  .00028401  00000+0  10375-2 0  9995
2 62206  42.9986 116.1255 0000980 281.0678  79.0064 15.27584139 64995
STARLINK-32430          
1 62207U 24229R   26032.23176635  .00026666  00000+0  97429-3 0  9991
2 62207  42.9945 113.3215 0000443 262.2145  97.8657 15.27605136 65022
STARLINK-32675          
1 62208U 24229S   26032.28124865  .00021067  00000+0  77242-3 0  9996
2 62208  43.0023 116.2892 0001454 276.6666  83.4020 15.27599799 64992
STARLINK-32671          
1 62209U 24229T   26032.25183869  .00021789  00000+0  79843-3 0  9993
2 62209  42.9956 116.9239 0000287 347.8794  12.2050 15.27602883 64985
STARLINK-32670          
1 62210U 24229U   26032.27353509  .00018998  00000+0  69800-3 0  9997
2 62210  43.0010 116.2329 0000609 287.2724  72.8061 15.27586107 64996
STARLINK-32642          
1 62211U 24229V   26032.26711281  .00025429  00000+0  92967-3 0  9999
2 62211  42.9991 116.1867 0000395  33.2428 326.8449 15.27606063 64997
STARLINK-32668          
1 62212U 24229W   26032.50002314  .00001373  00000+0  59429-4 0  9996
2 62212  43.0003 111.8608 0001390 266.3208 109.5076 15.27578484  5756
STARLINK-32669          
1 62213U 24229X   26032.24154509  .00030187  00000+0  11015-2 0  9994
2 62213  42.9965 116.8460 0000677 123.1528 236.9388 15.27594810 64987
STARLINK-32666          
1 62214U 24229Y   26032.24798282  .00030831  00000+0  11249-2 0  9992
2 62214  42.9977 116.8913 0001748 268.2294  91.8357 15.27588300 64986
STARLINK-32662          
1 62215U 24229Z   26032.29923440  .00032770  00000+0  11944-2 0  9990
2 62215  43.0020 116.4214 0001271 256.6229 103.4481 15.27597772 64990
